[{"OBJECT_NAME":"STARLINK-34058","OBJECT_ID":"2025-092Q","EPOCH":"2026-03-09T07:55:40.653696","MEAN_MOTION":15.27587386,"ECCENTRICITY":3.462e-5,"INCLINATION":43.001,"RA_OF_ASC_NODE":174.2377,"ARG_OF_PERICENTER":272.6613,"MEAN_ANOMALY":87.4199,"EPHEMERIS_TYPE":0,"CLASSIFICATION_TYPE":"U","NORAD_CAT_ID":63818,"ELEMENT_SET_NO":999,"REV_AT_EPOCH":4861,"BSTAR":0.001227275,"MEAN_MOTION_DOT":0.00033672,"MEAN_MOTION_DDOT":0},{"OBJECT_NAME":"GEOSCAN 4 (RS92S4)","OBJECT_ID":"2025-155S","EPOCH":"2026-03-09T21:50:07.724832","MEAN_MOTION":15.30369837,"ECCENTRICITY":0.00070968,"INCLINATION":97.4465,"RA_OF_ASC_NODE":37.7626,"ARG_OF_PERICENTER":154.7045,"MEAN_ANOMALY":205.4544,"EPHEMERIS_TYPE":0,"CLASSIFICATION_TYPE":"U","NORAD_CAT_ID":64892,"ELEMENT_SET_NO":999,"REV_AT_EPOCH":6562,"BSTAR":0.00068609503,"MEAN_MOTION_DOT":0.00020121,"MEAN_MOTION_DDOT":0}]
